$$SOE
2461302.500000000, A.D. 2026-Sep-19 00:00:00.0000, 1.989450322570003E+08, 2.011712802447993E+08, -1.241864038411492E+08,
2461309.500000000, A.D. 2026-Sep-26 00:00:00.0000, 1.900998067791192E+08, 2.094137126535852E+08, -1.247290378210299E+08,
2461316.500000000, A.D. 2026-Oct-03 00:00:00.0000, 1.809421410129769E+08, 2.173119710733093E+08, -1.250666767834493E+08,
2461323.500000000, A.D. 2026-Oct-10 00:00:00.0000, 1.714873486622100E+08, 2.248533905775406E+08, -1.251989483367172E+08,
2461330.500000000, A.D. 2026-Oct-17 00:00:00.0000, 1.617511098494927E+08, 2.320257907664544E+08, -1.251257489879794E+08,
2461337.500000000, A.D. 2026-Oct-24 00:00:00.0000, 1.517494601303521E+08, 2.388174822877559E+08, -1.248472435390219E+08,
2461344.500000000, A.D. 2026-Oct-31 00:00:00.0000, 1.414987799806430E+08, 2.452172735799792E+08, -1.243638647500302E+08,
2461351.500000000, A.D. 2026-Nov-07 00:00:00.0000, 1.310157850306272E+08, 2.512144779653455E+08, -1.236763132989770E+08,
2461358.500000000, A.D. 2026-Nov-14 00:00:00.0000, 1.203175171812688E+08, 2.567989220259574E+08, -1.227855579809911E+08,
2461365.500000000, A.D. 2026-Nov-21 00:00:00.0000, 1.094213347212417E+08, 2.619609559785371E+08, -1.216928359111676E+08,
2461372.500000000, A.D. 2026-Nov-28 00:00:00.0000, 9.834490035749440E+07, 2.666914630728313E+08, -1.203996528600503E+08,
2461379.500000000, A.D. 2026-Dec-05 00:00:00.0000, 8.710617068704693E+07, 2.709818674053381E+08, -1.189077840979903E+08,
2461386.500000000, A.D. 2026-Dec-12 00:00:00.0000, 7.572338719130005E+07, 2.748241432982720E+08, -1.172192755037831E+08,
2461393.500000000, A.D. 2026-Dec-19 00:00:00.0000, 6.421506677642743E+07, 2.782108262791231E+08, -1.153364447522647E+08,
2461400.500000000, A.D. 2026-Dec-26 00:00:00.0000, 5.259999162619133E+07, 2.811350248183798E+08, -1.132618826267393E+08,
2461407.500000000, A.D. 2027-Jan-02 00:00:00.0000, 4.089719855060590E+07, 2.835904326539295E+08, -1.109984544824338E+08,
2461414.500000000, A.D. 2027-Jan-09 00:00:00.0000, 2.912596785143491E+07, 2.855713417351658E+08, -1.085493018512971E+08,
2461421.500000000, A.D. 2027-Jan-16 00:00:00.0000, 1.730581164005402E+07, 2.870726558026273E+08, -1.059178441684412E+08,
2461428.500000000, A.D. 2027-Jan-23 00:00:00.0000, 5.456461550654913E+06, 2.880899045646472E+08, -1.031077806020225E+08,
2461435.500000000, A.D. 2027-Jan-30 00:00:00.0000, -6.402144069694724E+06, 2.886192584178979E+08, -1.001230919781656E+08,
2461442.500000000, A.D. 2027-Feb-06 00:00:00.0000, -1.824987317960875E+07, 2.886575440403795E+08, -9.696804277914208E+07,
2461449.500000000, A.D. 2027-Feb-13 00:00:00.0000, -3.006641384346608E+07, 2.882022620607896E+08, -9.364718303873231E+07,
2461456.500000000, A.D. 2027-Feb-20 00:00:00.0000, -4.183129128489548E+07, 2.872516059865434E+08, -9.016534994277418E+07,
2461463.500000000, A.D. 2027-Feb-27 00:00:00.0000, -5.352388691279525E+07, 2.858044791283758E+08, -8.652766947159997E+07,
2461470.500000000, A.D. 2027-Mar-06 00:00:00.0000, -6.512345643182011E+07, 2.838605113978609E+08, -8.273955815571651E+07,
2461477.500000000, A.D. 2027-Mar-13 00:00:00.0000, -7.660914875618196E+07, 2.814200779795553E+08, -7.880672458548565E+07,
2461484.500000000, A.D. 2027-Mar-20 00:00:00.0000, -8.796002697142161E+07, 2.784843189730804E+08, -7.473517058167258E+07,
2461491.500000000, A.D. 2027-Mar-27 00:00:00.0000, -9.915509126236114E+07, 2.750551593719697E+08, -7.053119202706641E+07,
2461498.500000000, A.D. 2027-Apr-03 00:00:00.0000, -1.101733037244193E+08, 2.711353292361519E+08, -6.620137931590576E+07,
2461505.500000000, A.D. 2027-Apr-10 00:00:00.0000, -1.209936151145535E+08, 2.667283839722481E+08, -6.175261735513647E+07,
2461512.500000000, A.D. 2027-Apr-17 00:00:00.0000, -1.315949936336413E+08, 2.618387245833746E+08, -5.719208504650145E+07,
2461519.500000000, A.D. 2027-Apr-24 00:00:00.0000, -1.419564557700794E+08, 2.564716176860500E+08, -5.252725418305643E+07,
2461526.500000000, A.D. 2027-May-01 00:00:00.0000, -1.520570990076338E+08, 2.506332151643839E+08, -4.776588770208421E+07,
2461533.500000000, A.D. 2027-May-08 00:00:00.0000, -1.618761361860485E+08, 2.443305740343003E+08, -4.291603717431179E+07,
2461540.500000000, A.D. 2027-May-15 00:00:00.0000, -1.713929331009668E+08, 2.375716772812980E+08, -3.798603922542581E+07,
2461547.500000000, A.D. 2027-May-22 00:00:00.0000, -1.805870509796488E+08, 2.303654528784485E+08, -3.298451086700346E+07,
2461554.500000000, A.D. 2027-May-29 00:00:00.0000, -1.894382905216533E+08, 2.227217892809931E+08, -2.792034406298085E+07,
2461561.500000000, A.D. 2027-Jun-05 00:00:00.0000, -1.979267366643431E+08, 2.146515502667510E+08, -2.280269925499212E+07,
2461568.500000000, A.D. 2027-Jun-12 00:00:00.0000, -2.060328061132475E+08, 2.061665892952334E+08, -1.764099753249457E+07,
2461575.500000000, A.D. 2027-Jun-19 00:00:00.0000, -2.137372979641678E+08, 1.972797621727684E+08, -1.244491139486635E+07,
2461582.500000000, A.D. 2027-Jun-26 00:00:00.0000, -2.210214471065491E+08, 1.880049374587560E+08, -7.224354051943108E+06,
2461589.500000000, A.D. 2027-Jul-03 00:00:00.0000, -2.278669802189680E+08, 1.783570043017697E+08, -1.989467177132301E+06,
2461596.500000000, A.D. 2027-Jul-10 00:00:00.0000, -2.342561742316016E+08, 1.683518773819565E+08, 3.249392977090798E+06,
2461603.500000000, A.D. 2027-Jul-17 00:00:00.0000, -2.401719170959819E+08, 1.580064985773560E+08, 8.481671182051457E+06,
2461610.500000000, A.D. 2027-Jul-24 00:00:00.0000, -2.455977705444088E+08, 1.473388349389673E+08, 1.369663061467137E+07,
2461617.500000000, A.D. 2027-Jul-31 00:00:00.0000, -2.505180342260286E+08, 1.363678728521468E+08, 1.888337207082549E+07,
2461624.500000000, A.D. 2027-Aug-07 00:00:00.0000, -2.549178111771428E+08, 1.251136091768607E+08, 2.403085518333332E+07,
2461631.500000000, A.D. 2027-Aug-14 00:00:00.0000, -2.587830766443129E+08, 1.135970387617951E+08, 2.912792188377129E+07,
2461638.500000000, A.D. 2027-Aug-21 00:00:00.0000, -2.621007493108689E+08, 1.018401346392016E+08, 3.416332181298395E+07,
2461645.500000000, A.D. 2027-Aug-28 00:00:00.0000, -2.648587610798966E+08, 8.986582179091337E+07, 3.912573948151980E+07,
2461652.500000000, A.D. 2027-Sep-04 00:00:00.0000, -2.670461261062006E+08, 7.769794666391227E+07, 4.400382347865260E+07,
2461659.500000000, A.D. 2027-Sep-11 00:00:00.0000, -2.686530099658906E+08, 6.536124145985307E+07, 4.878621775839488E+07,
2461666.500000000, A.D. 2027-Sep-18 00:00:00.0000, -2.696707983081128E+08, 5.288128227741861E+07, 5.346159487054791E+07,
2461673.500000000, A.D. 2027-Sep-25 00:00:00.0000, -2.700921642078288E+08, 4.028444081789435E+07, 5.801869102709106E+07,
2461680.500000000, A.D. 2027-Oct-02 00:00:00.0000, -2.699111335459230E+08, 2.759782953794333E+07, 6.244634289676433E+07,
2461687.500000000, A.D. 2027-Oct-09 00:00:00.0000, -2.691231477396781E+08, 1.484924016410120E+07, 6.673352599232397E+07,
2461694.500000000, A.D. 2027-Oct-16 00:00:00.0000, -2.677251230619492E+08, 2.067075490994409E+06, 7.086939447070709E+07,
2461701.500000000, A.D. 2027-Oct-23 00:00:00.0000, -2.657155055653582E+08, -1.071972550075977E+07, 7.484332211655661E+07,
2461708.500000000, A.D. 2027-Oct-30 00:00:00.0000, -2.630943205012294E+08, -2.348176847900579E+07, 7.864494428585112E+07,
2461715.500000000, A.D. 2027-Nov-06 00:00:00.0000, -2.598632166597129E+08, -3.618928921738635E+07, 8.226420073788109E+07,
2461722.500000000, A.D. 2027-Nov-13 00:00:00.0000, -2.560255068935559E+08, -4.881224546335618E+07, 8.569137906953628E+07,
2461729.500000000, A.D. 2027-Nov-20 00:00:00.0000, -2.515862012300591E+08, -6.132041701939322E+07, 8.891715798708862E+07,
2461736.500000000, A.D. 2027-Nov-27 00:00:00.0000, -2.465520302877734E+08, -7.368351058493751E+07, 9.193265016463342E+07,
2461743.500000000, A.D. 2027-Dec-04 00:00:00.0000, -2.409314603882693E+08, -8.587126786228603E+07, 9.472944457447964E+07,
2461750.500000000, A.D. 2027-Dec-11 00:00:00.0000, -2.347347003444060E+08, -9.785357722886215E+07, 9.729964786883837E+07,
2461757.500000000, A.D. 2027-Dec-18 00:00:00.0000, -2.279736991684200E+08, -1.096005885689288E+08, 9.963592436605272E+07,
2461764.500000000, A.D. 2027-Dec-25 00:00:00.0000, -2.206621341541222E+08, -1.210828304327464E+08, 1.017315342311502E+08,
2461771.500000000, A.D. 2028-Jan-01 00:00:00.0000, -2.128153889918305E+08, -1.322713286012018E+08, 1.035803694499278E+08,
$$EOE